OBJECT_NAME,OBJECT_ID,EPOCH,MEAN_MOTION,ECCENTRICITY,INCLINATION,RA_OF_ASC_NODE,ARG_OF_PERICENTER,MEAN_ANOMALY,EPHEMERIS_TYPE,CLASSIFICATION_TYPE,NORAD_CAT_ID,ELEMENT_SET_NO,REV_AT_EPOCH,BSTAR,MEAN_MOTION_DOT,MEAN_MOTION_DDOT
STARLINK-34491,2025-147AB,2026-07-16T11:18:31.087296,15.34378346,.00006501,53.1627,2.0988,64.7275,295.3795,0,U,64780,999,5850,.47415892E-3,.15667E-3,0
STARLINK-34582,2025-147AC,2026-07-16T11:09:26.251488,15.34397049,.00011228,53.1596,2.0542,84.2934,275.8196,0,U,64781,999,5843,.24524282E-3,.7918E-4,0
STARLINK-34482,2025-147AD,2026-07-15T18:55:15.028032,15.34393945,.00011494,53.1606,5.6548,85.8094,274.3040,0,U,64782,999,5843,.32065644E-3,.10471E-3,0
STARLINK-34629,2025-150A,2026-07-16T08:42:35.454240,14.98326614,.00035033,70.0008,169.9142,254.6883,105.3889,0,U,64790,999,5579,.23771306E-3,.2744E-4,0
STARLINK-34697,2025-150B,2026-07-16T08:48:22.325184,14.98326999,.00033897,70.0008,169.9220,261.7050,98.3724,0,U,64791,999,5579,.17620498E-3,.201E-4,0
STARLINK-34632,2025-150C,2026-07-16T07:48:30.192480,14.98330497,.0003632,70.0008,170.0598,259.7396,100.3353,0,U,64792,999,5578,.19659883E-3,.2254E-4,0
STARLINK-34693,2025-150D,2026-07-16T08:18:35.202528,14.98340091,.00038916,70.0002,170.2480,259.5578,100.5142,0,U,64793,999,5578,.31455212E-3,.3663E-4,0
STARLINK-34666,2025-150E,2026-07-16T08:18:19.126944,14.98322191,.00034204,69.9996,170.2526,266.7875,93.2893,0,U,64794,999,5578,-.17245786E-4,-.299E-5,0
STARLINK-34567,2025-150F,2026-07-16T08:30:18.529632,14.98335276,.00039188,70.0008,169.8794,261.4159,98.6556,0,U,64795,999,5579,.17903661E-3,.2044E-4,0
STARLINK-34646,2025-150G,2026-07-16T07:54:31.612320,14.98328601,.00035678,70.0007,170.1884,269.6808,90.3942,0,U,64796,999,5667,.2005037E-3,.23E-4,0
STARLINK-34641,2025-150H,2026-07-16T07:24:13.954176,14.98335018,.00029272,70.0007,170.1189,268.8214,91.2609,0,U,64797,999,5661,.12819837E-3,.1437E-4,0
STARLINK-34649,2025-150J,2026-07-16T07:54:17.205120,14.98338914,.0003517,70.0010,170.1953,261.1462,98.9299,0,U,64798,999,5667,.55943177E-4,.575E-5,0
STARLINK-34662,2025-150K,2026-07-16T08:30:32.451264,14.98338894,.00036191,70.0007,169.8819,270.0795,89.9949,0,U,64799,999,5579,-.28462571E-3,-.3488E-4,0
STARLINK-34660,2025-150L,2026-07-16T07:18:13.114944,14.98331216,.00037723,70.0007,170.1059,258.6760,101.3975,0,U,64800,999,5578,.76452544E-4,.819E-5,0
STARLINK-34604,2025-150M,2026-07-16T07:36:15.196320,14.98331740,.00033142,70.0008,170.1483,265.7395,94.3386,0,U,64801,999,5578,.10126624E-3,.1116E-4,0
STARLINK-34658,2025-150N,2026-07-16T08:12:19.197504,14.98334049,.00032837,70.0005,170.2324,261.1306,98.9481,0,U,64802,999,5578,.19699474E-3,.2259E-4,0
STARLINK-34620,2025-150P,2026-07-16T08:12:32.786496,14.98326327,.00037428,70.0005,170.2319,265.9368,94.1363,0,U,64803,999,5578,-.55926946E-4,-.76E-5,0
STARLINK-34633,2025-150Q,2026-07-16T09:06:36.830016,14.98334228,.0003906,70.0007,169.9620,262.0515,98.0201,0,U,64804,999,5579,.34313218E-4,.316E-5,0
STARLINK-34624,2025-150R,2026-07-16T08:00:18.612864,14.98324221,.00031194,70.0005,170.2070,264.4494,95.6310,0,U,64805,999,5578,.19983113E-3,.2292E-4,0
STARLINK-34664,2025-150S,2026-07-16T08:24:19.145376,14.98342171,.00032233,70.0006,169.8623,269.3146,90.7644,0,U,64806,999,5579,.20163179E-3,.2314E-4,0
STARLINK-34663,2025-150T,2026-07-16T07:42:15.692544,14.98328215,.00034218,70.0006,170.1646,264.8151,95.2618,0,U,64807,999,5578,-.16782828E-4,-.293E-5,0
STARLINK-34696,2025-150U,2026-07-16T07:48:16.660512,14.98325947,.00040338,70.0004,170.1764,262.8650,97.2050,0,U,64808,999,5578,-.19261847E-4,-.323E-5,0
STARLINK-34675,2025-150V,2026-07-16T07:30:14.897952,14.98324939,.00040212,70.0003,170.1361,261.0159,99.0545,0,U,64809,999,5578,-.15584297E-4,-.279E-5,0
STARLINK-34608,2025-150W,2026-07-16T08:42:19.827072,14.98335156,.00037524,70.0007,169.9095,264.4041,95.6690,0,U,64810,999,5579,.15696917E-3,.1781E-4,0
STARLINK-34669,2025-150X,2026-07-16T08:36:20.899872,14.98337483,.00036232,70.0008,169.8894,264.9513,95.1233,0,U,64811,999,5579,.21761237E-3,.2505E-4,0
STARLINK-34644,2025-150Y,2026-07-16T08:00:32.229504,14.98344473,.00030701,70.0007,170.1584,265.9260,94.1549,0,U,64812,999,5578,.20209406E-3,.232E-4,0
STARLINK-34685,2025-150Z,2026-07-16T08:24:36.197280,14.98333877,.00031061,70.0006,170.2600,272.8977,87.1826,0,U,64813,999,5578,.20458458E-3,.2349E-4,0
STARLINK-34668,2025-150AA,2026-07-16T08:48:35.032896,14.98329825,.0003352,70.0010,169.9161,267.7783,92.2992,0,U,64814,999,5578,.37655919E-3,.4403E-4,0
STARLINK-34667,2025-150AB,2026-07-16T07:36:29.318400,14.98335437,.00031674,70.0005,170.1427,270.0898,89.9898,0,U,64815,999,5578,-.16485961E-3,-.206E-4,0
STARLINK-34723,2025-152A,2026-07-16T13:19:40.489536,15.05658677,.00020058,97.2838,50.3190,85.1409,275.0048,0,U,64842,999,5480,.72318425E-4,.988E-5,0
