STARLINK-34491          
1 64780U 25147AB  26197.47119314  .00015667  00000+0  47416-3 0  9998
2 64780  53.1627   2.0988 0000650  64.7275 295.3795 15.34378346 58502
STARLINK-34582          
1 64781U 25147AC  26197.46488717  .00007918  00000+0  24524-3 0  9999
2 64781  53.1596   2.0542 0001122  84.2934 275.8196 15.34397049 58439
STARLINK-34482          
1 64782U 25147AD  26196.78836838  .00010471  00000+0  32066-3 0  9993
2 64782  53.1606   5.6548 0001149  85.8094 274.3040 15.34393945 58433
STARLINK-34629          
1 64790U 25150A   26197.36291035  .00002744  00000+0  23771-3 0  9992
2 64790  70.0008 169.9142 0003503 254.6883 105.3889 14.98326614 55796
STARLINK-34697          
1 64791U 25150B   26197.36692506  .00002010  00000+0  17620-3 0  9993
2 64791  70.0008 169.9220 0003389 261.7050  98.3724 14.98326999 55796
STARLINK-34632          
1 64792U 25150C   26197.32534945  .00002254  00000+0  19660-3 0  9998
2 64792  70.0008 170.0598 0003632 259.7396 100.3353 14.98330497 55788
STARLINK-34693          
1 64793U 25150D   26197.34624077  .00003663  00000+0  31455-3 0  9998
2 64793  70.0002 170.2480 0003891 259.5578 100.5142 14.98340091 55781
STARLINK-34666          
1 64794U 25150E   26197.34605471 -.00000299  00000+0 -17246-4 0  9993
2 64794  69.9996 170.2526 0003420 266.7875  93.2893 14.98322191 55782
STARLINK-34567          
1 64795U 25150F   26197.35438113  .00002044  00000+0  17904-3 0  9990
2 64795  70.0008 169.8794 0003918 261.4159  98.6556 14.98335276 55794
STARLINK-34646          
1 64796U 25150G   26197.32953255  .00002300  00000+0  20050-3 0  9998
2 64796  70.0007 170.1884 0003567 269.6808  90.3942 14.98328601 56670
STARLINK-34641          
1 64797U 25150H   26197.30849484  .00001437  00000+0  12820-3 0  9991
2 64797  70.0007 170.1189 0002927 268.8214  91.2609 14.98335018 56614
STARLINK-34649          
1 64798U 25150J   26197.32936580  .00000575  00000+0  55943-4 0  9994
2 64798  70.0010 170.1953 0003517 261.1462  98.9299 14.98338914 56678
STARLINK-34662          
1 64799U 25150K   26197.35454226 -.00003488  00000+0 -28463-3 0  9994
2 64799  70.0007 169.8819 0003619 270.0795  89.9949 14.98338894 55793
STARLINK-34660          
1 64800U 25150L   26197.30431846  .00000819  00000+0  76453-4 0  9991
2 64800  70.0007 170.1059 0003772 258.6760 101.3975 14.98331216 55789
STARLINK-34604          
1 64801U 25150M   26197.31684255  .00001116  00000+0  10127-3 0  9993
2 64801  70.0008 170.1483 0003314 265.7395  94.3386 14.98331740 55786
STARLINK-34658          
1 64802U 25150N   26197.34188886  .00002259  00000+0  19699-3 0  9998
2 64802  70.0005 170.2324 0003283 261.1306  98.9481 14.98334049 55787
STARLINK-34620          
1 64803U 25150P   26197.34204614 -.00000760  00000+0 -55927-4 0  9999
2 64803  70.0005 170.2319 0003742 265.9368  94.1363 14.98326327 55789
STARLINK-34633          
1 64804U 25150Q   26197.37959294  .00000316  00000+0  34313-4 0  9995
2 64804  70.0007 169.9620 0003906 262.0515  98.0201 14.98334228 55790
STARLINK-34624          
1 64805U 25150R   26197.33354876  .00002292  00000+0  19983-3 0  9997
2 64805  70.0005 170.2070 0003119 264.4494  95.6310 14.98324221 55786
STARLINK-34664          
1 64806U 25150S   26197.35022159  .00002314  00000+0  20163-3 0  9993
2 64806  70.0006 169.8623 0003223 269.3146  90.7644 14.98342171 55791
STARLINK-34663          
1 64807U 25150T   26197.32101496 -.00000293  00000+0 -16783-4 0  9993
2 64807  70.0006 170.1646 0003421 264.8151  95.2618 14.98328215 55781
STARLINK-34696          
1 64808U 25150U   26197.32519283 -.00000323  00000+0 -19262-4 0  9990
2 64808  70.0004 170.1764 0004033 262.8650  97.2050 14.98325947 55784
STARLINK-34675          
1 64809U 25150V   26197.31267243 -.00000279  00000+0 -15584-4 0  9999
2 64809  70.0003 170.1361 0004021 261.0159  99.0545 14.98324939 55788
STARLINK-34608          
1 64810U 25150W   26197.36272948  .00001781  00000+0  15697-3 0  9995
2 64810  70.0007 169.9095 0003752 264.4041  95.6690 14.98335156 55798
STARLINK-34669          
1 64811U 25150X   26197.35857523  .00002505  00000+0  21761-3 0  9997
2 64811  70.0008 169.8894 0003623 264.9513  95.1233 14.98337483 55795
STARLINK-34644          
1 64812U 25150Y   26197.33370636  .00002320  00000+0  20209-3 0  9992
2 64812  70.0007 170.1584 0003070 265.9260  94.1549 14.98344473 55787
STARLINK-34685          
1 64813U 25150Z   26197.35041895  .00002349  00000+0  20458-3 0  9994
2 64813  70.0006 170.2600 0003106 272.8977  87.1826 14.98333877 55785
STARLINK-34668          
1 64814U 25150AA  26197.36707214  .00004403  00000+0  37656-3 0  9991
2 64814  70.0010 169.9161 0003352 267.7783  92.2992 14.98329825 55788
STARLINK-34667          
1 64815U 25150AB  26197.31700600 -.00002060  00000+0 -16486-3 0  9996
2 64815  70.0005 170.1427 0003167 270.0898  89.9898 14.98335437 55784
STARLINK-34723          
1 64842U 25152A   26197.55532974  .00000988  00000+0  72318-4 0  9993
2 64842  97.2838  50.3190 0002005  85.1409 275.0048 15.05658677 54808
